{
  "type": "FeatureCollection",
  "features": [
    {
      "type": "Feature",
      "properties": {
        "norad_id": 41330,
        "name": "COSMOS 2514 (751)",
        "group": "glo-ops",
        "lat": -4.528563214152119,
        "lon": 141.33245577125825,
        "alt_km": 19106.108345007706,
        "timestamp": "2025-12-17T10:52:54.614290+00:00",
        "meta_object_name": "COSMOS 2514 (751)",
        "meta_object_id": "2016-008A",
        "meta_epoch": "2025-12-16T06:34:00.333408",
        "meta_mean_motion": 2.13102686,
        "meta_eccentricity": 0.0011947,
        "meta_inclination": 65.1318,
        "meta_ra_of_asc_node": 319.2829,
        "meta_arg_of_pericenter": 220.1378,
        "meta_mean_anomaly": 139.7678,
        "meta_ephemeris_type": 0,
        "meta_classification_type": "U",
        "meta_norad_cat_id": 41330,
        "meta_element_set_no": 999,
        "meta_rev_at_epoch": 7672,
        "meta_bstar": 0,
        "meta_mean_motion_dot": -6.9e-07,
        "meta_mean_motion_ddot": 0,
        "tle_line1": "1 41330U 16008A   25350.27361497 -.00000069  00000+0  00000+0 0  9994",
        "tle_line2": "2 41330  65.1318 319.2829 0011947 220.1378 139.7678  2.13102686 76728"
      },
      "geometry": {
        "type": "Point",
        "coordinates": [
          141.33245577125825,
          -4.528563214152119
        ]
      }
    },
    {
      "type": "Feature",
      "properties": {
        "norad_id": 42939,
        "name": "COSMOS 2522 (752)",
        "group": "glo-ops",
        "lat": -44.240762183182554,
        "lon": 169.79198499361536,
        "alt_km": 19133.79427129373,
        "timestamp": "2025-12-17T10:52:54.614301+00:00",
        "meta_object_name": "COSMOS 2522 (752)",
        "meta_object_id": "2017-055A",
        "meta_epoch": "2025-12-16T02:41:16.915776",
        "meta_mean_motion": 2.13102063,
        "meta_eccentricity": 0.00063883,
        "meta_inclination": 64.0761,
        "meta_ra_of_asc_node": 198.1142,
        "meta_arg_of_pericenter": 224.0896,
        "meta_mean_anomaly": 135.9399,
        "meta_ephemeris_type": 0,
        "meta_classification_type": "U",
        "meta_norad_cat_id": 42939,
        "meta_element_set_no": 999,
        "meta_rev_at_epoch": 6407,
        "meta_bstar": 0,
        "meta_mean_motion_dot": 1.09e-06,
        "meta_mean_motion_ddot": 0,
        "tle_line1": "1 42939U 17055A   25350.11200134  .00000109  00000+0  00000+0 0  9990",
        "tle_line2": "2 42939  64.0761 198.1142 0006388 224.0896 135.9399  2.13102063 64079"
      },
      "geometry": {
        "type": "Point",
        "coordinates": [
          169.79198499361536,
          -44.240762183182554
        ]
      }
    },
    {
      "type": "Feature",
      "properties": {
        "norad_id": 43508,
        "name": "COSMOS 2527 (756)",
        "group": "glo-ops",
        "lat": -18.8688927055334,
        "lon": 71.02049034529236,
        "alt_km": 19141.647584200684,
        "timestamp": "2025-12-17T10:52:54.614312+00:00",
        "meta_object_name": "COSMOS 2527 (756)",
        "meta_object_id": "2018-053A",
        "meta_epoch": "2025-12-16T01:44:48.838272",
        "meta_mean_motion": 2.13102153,
        "meta_eccentricity": 0.00087862,
        "meta_inclination": 65.4745,
        "meta_ra_of_asc_node": 80.02,
        "meta_arg_of_pericenter": 225.9447,
        "meta_mean_anomaly": 133.9962,
        "meta_ephemeris_type": 0,
        "meta_classification_type": "U",
        "meta_norad_cat_id": 43508,
        "meta_element_set_no": 999,
        "meta_rev_at_epoch": 5837,
        "meta_bstar": 0,
        "meta_mean_motion_dot": -5.4e-07,
        "meta_mean_motion_ddot": 0,
        "tle_line1": "1 43508U 18053A   25350.07278748 -.00000054  00000+0  00000+0 0  9993",
        "tle_line2": "2 43508  65.4745  80.0200 0008786 225.9447 133.9962  2.13102153 58379"
      },
      "geometry": {
        "type": "Point",
        "coordinates": [
          71.02049034529236,
          -18.8688927055334
        ]
      }
    },
    {
      "type": "Feature",
      "properties": {
        "norad_id": 43687,
        "name": "COSMOS 2529 (757)",
        "group": "glo-ops",
        "lat": -63.70928279857781,
        "lon": 95.98097966528736,
        "alt_km": 19118.489818902126,
        "timestamp": "2025-12-17T10:52:54.614323+00:00",
        "meta_object_name": "COSMOS 2529 (757)",
        "meta_object_id": "2018-086A",
        "meta_epoch": "2025-12-14T07:02:10.344192",
        "meta_mean_motion": 2.13101932,
        "meta_eccentricity": 0.00071555,
        "meta_inclination": 64.2921,
        "meta_ra_of_asc_node": 198.8359,
        "meta_arg_of_pericenter": 254.022,
        "meta_mean_anomaly": 105.9754,
        "meta_ephemeris_type": 0,
        "meta_classification_type": "U",
        "meta_norad_cat_id": 43687,
        "meta_element_set_no": 999,
        "meta_rev_at_epoch": 5534,
        "meta_bstar": 0,
        "meta_mean_motion_dot": 9.3e-07,
        "meta_mean_motion_ddot": 0,
        "tle_line1": "1 43687U 18086A   25348.29317528  .00000093  00000+0  00000+0 0  9990",
        "tle_line2": "2 43687  64.2921 198.8359 0007155 254.0220 105.9754  2.13101932 55340"
      },
      "geometry": {
        "type": "Point",
        "coordinates": [
          95.98097966528736,
          -63.70928279857781
        ]
      }
    },
    {
      "type": "Feature",
      "properties": {
        "norad_id": 44299,
        "name": "COSMOS 2534 (758)",
        "group": "glo-ops",
        "lat": 34.44528497557945,
        "lon": -142.029821013003,
        "alt_km": 19135.38665718406,
        "timestamp": "2025-12-17T10:52:54.614335+00:00",
        "meta_object_name": "COSMOS 2534 (758)",
        "meta_object_id": "2019-030A",
        "meta_epoch": "2025-12-15T05:49:22.027584",
        "meta_mean_motion": 2.13102219,
        "meta_eccentricity": 0.00088073,
        "meta_inclination": 64.3657,
        "meta_ra_of_asc_node": 198.8086,
        "meta_arg_of_pericenter": 283.8967,
        "meta_mean_anomaly": 218.9019,
        "meta_ephemeris_type": 0,
        "meta_classification_type": "U",
        "meta_norad_cat_id": 44299,
        "meta_element_set_no": 999,
        "meta_rev_at_epoch": 5100,
        "meta_bstar": 0,
        "meta_mean_motion_dot": 1.03e-06,
        "meta_mean_motion_ddot": 0,
        "tle_line1": "1 44299U 19030A   25349.24261606  .00000103  00000+0  00000+0 0  9993",
        "tle_line2": "2 44299  64.3657 198.8086 0008807 283.8967 218.9019  2.13102219 51004"
      },
      "geometry": {
        "type": "Point",
        "coordinates": [
          -142.029821013003,
          34.44528497557945
        ]
      }
    },
    {
      "type": "Feature",
      "properties": {
        "norad_id": 44850,
        "name": "COSMOS 2544 (759)",
        "group": "glo-ops",
        "lat": 19.62539986848092,
        "lon": 89.16645933279709,
        "alt_km": 19151.450430326167,
        "timestamp": "2025-12-17T10:52:54.614347+00:00",
        "meta_object_name": "COSMOS 2544 (759)",
        "meta_object_id": "2019-088A",
        "meta_epoch": "2025-12-16T00:24:58.723776",
        "meta_mean_motion": 2.13101973,
        "meta_eccentricity": 0.00138315,
        "meta_inclination": 65.4622,
        "meta_ra_of_asc_node": 79.8485,
        "meta_arg_of_pericenter": 249.722,
        "meta_mean_anomaly": 110.1429,
        "meta_ephemeris_type": 0,
        "meta_classification_type": "U",
        "meta_norad_cat_id": 44850,
        "meta_element_set_no": 999,
        "meta_rev_at_epoch": 4681,
        "meta_bstar": 0,
        "meta_mean_motion_dot": -5.5e-07,
        "meta_mean_motion_ddot": 0,
        "tle_line1": "1 44850U 19088A   25350.01734634 -.00000055  00000+0  00000+0 0  9999",
        "tle_line2": "2 44850  65.4622  79.8485 0013831 249.7220 110.1429  2.13101973 46815"
      },
      "geometry": {
        "type": "Point",
        "coordinates": [
          89.16645933279709,
          19.62539986848092
        ]
      }
    },
    {
      "type": "Feature",
      "properties": {
        "norad_id": 45358,
        "name": "COSMOS 2545 (760)",
        "group": "glo-ops",
        "lat": -44.84228719364536,
        "lon": 167.163236997972,
        "alt_km": 19106.947245961353,
        "timestamp": "2025-12-17T10:52:54.614359+00:00",
        "meta_object_name": "COSMOS 2545 (760)",
        "meta_object_id": "2020-018A",
        "meta_epoch": "2025-12-16T05:06:52.711776",
        "meta_mean_motion": 2.13102549,
        "meta_eccentricity": 0.00116565,
        "meta_inclination": 64.4672,
        "meta_ra_of_asc_node": 318.8472,
        "meta_arg_of_pericenter": 249.26,
        "meta_mean_anomaly": 110.6088,
        "meta_ephemeris_type": 0,
        "meta_classification_type": "U",
        "meta_norad_cat_id": 45358,
        "meta_element_set_no": 999,
        "meta_rev_at_epoch": 4476,
        "meta_bstar": 0,
        "meta_mean_motion_dot": -7e-07,
        "meta_mean_motion_ddot": 0,
        "tle_line1": "1 45358U 20018A   25350.21311009 -.00000070  00000+0  00000+0 0  9994",
        "tle_line2": "2 45358  64.4672 318.8472 0011656 249.2600 110.6088  2.13102549 44763"
      },
      "geometry": {
        "type": "Point",
        "coordinates": [
          167.163236997972,
          -44.84228719364536
        ]
      }
    }
  ]
}